1 26690U 01004A   20306.38698318  .00000028  00000-0  00000-0 0  9995
2 26690  53.5214 108.9011 0000145   1.6796  13.8118  1.91595631144173
1 26690U 01004A   20307.09004959  .00000028  00000-0  00000-0 0  9996
2 26690  53.5218 108.8748 0000154   1.2034 139.2414  1.91595623144188
1 26690U 01004A   20307.09004959  .00000028  00000-0  00000-0 0  9996
2 26690  53.5218 108.8748 0000154   1.2034 139.2414  1.91595623144201
1 26690U 01004A   20308.18063473  .00000032  00000-0  00000-0 0  9998
2 26690  53.5224 108.8339 0000162   0.7553 171.9413  1.91595590144220
1 26690U 01004A   20308.45425919  .00000033  00000-0  00000-0 0  9996
2 26690  53.5226 108.8236 0000162 358.7572   2.6771  1.91595574144213
1 26690U 01004A   20309.50510205  .00000040  00000-0  00000-0 0  9994
2 26690  53.5233 108.7842 0000165 356.5765   9.6963  1.91595516144234
1 26690U 01004A   20310.55509097  .00000048  00000-0  00000-0 0  9996
2 26690  53.5239 108.7448 0000165 353.2226  17.2996  1.91595446144253
1 26690U 01004A   20310.55509097  .00000048  00000-0  00000-0 0  9996
2 26690  53.5239 108.7448 0000165 353.2226  17.2996  1.91595446144275
1 26690U 01004A   20311.31507133  .00000054  00000-0  00000-0 0  9997
2 26690  53.5244 108.7162 0000158 351.5568 183.1759  1.91595403144268
1 26690U 01004A   20311.58433719  .00000056  00000-0  00000-0 0  9996
2 26690  53.5246 108.7061 0000156 348.6901  11.7736  1.91595383144295
1 26690U 01004A   20312.36467896  .00000061  00000-0  00000-0 0  9992
2 26690  53.5251 108.6768 0000146 344.8762 193.8425  1.91595344144289
1 26690U 01004A   20312.64969149  .00000063  00000-0  00000-0 0  9993
2 26690  53.5253 108.6660 0000144 341.7188  33.5926  1.91595328144310
1 26690U 01004A   20313.67134402  .00000068  00000-0  10000-3 0  9992
2 26690  53.5264 108.6278 0000138 326.3128  33.7023  1.91596571144314
1 26690U 01004A   20315.78486442  .00000066  00000+0  00000+0 0  9992
2 26690  53.5274 108.5478 0000129 298.3893  79.4640  1.91595260144375
1 26690U 01004A   20317.32452972  .00000052  00000+0  00000+0 0  9990
2 26690  53.5286 108.4895 0000164 278.1137  81.7516  1.91595254144399
1 26690U 01004A   20319.14278020  .00000029  00000-0  00000-0 0  9998
2 26690  53.5300 108.4208 0000220 263.6621 270.3737  1.91595241144436
1 26690U 01004A   20319.79341078  .00000021  00000-0  00000-0 0  9995
2 26690  53.5305 108.3962 0000244 259.0914   3.7283  1.91595225144444
1 26690U 01004A   20320.26727148  .00000016  00000-0  00000-0 0  9999
2 26690  53.5309 108.3783 0000255 256.1833 333.4903  1.91595221144458
1 26690U 01004A   20321.23583426  .00000008  00000-0  00000+0 0  9996
2 26690  53.5316 108.3417 0000289 250.7294 287.0276  1.91595216144459
1 26690U 01004A   20321.23583426  .00000008  00000-0  00000-0 0  9997
2 26690  53.5316 108.3417 0000289 250.7294 287.0276  1.91595216144459
1 26690U 01004A   20321.23583426  .00000008  00000-0  00000-0 0  9997
2 26690  53.5316 108.3417 0000289 250.7294 287.0276  1.91595216144471
1 26690U 01004A   20322.56012024  .00000005  00000-0  00000-0 0  9992
2 26690  53.5326 108.2916 0000349 245.8728 125.3344  1.91595227144482
1 26690U 01004A   20322.56012024  .00000005  00000-0  00000-0 0  9992
2 26690  53.5326 108.2916 0000349 245.8728 125.3344  1.91595227144505
1 26690U 01004A   20323.61007559  .00000008  00000-0  00000-0 0  9999
2 26690  53.5334 108.2520 0000393 243.7552 131.6778  1.91595268144524
1 26690U 01004A   20324.65383874  .00000014  00000-0  00000-0 0  9998
2 26690  53.5342 108.2126 0000427 243.1570 132.2305  1.91595332144544
1 26690U 01004A   20325.15466028  .00000017  00000-0  00000-0 0  9990
2 26690  53.5346 108.1938 0000441 243.3301 117.5082  1.91595369144557
1 26690U 01004A   20325.70013483  .00000021  00000-0  00000-0 0  9999
2 26690  53.5349 108.1733 0000453 243.5983 133.4911  1.91595415144543
1 26690U 01004A   20326.82542613  .00000026  00000-0  00000-0 0  9990
2 26690  53.5357 108.1310 0000475 244.7407 188.5390  1.91595502144584
1 26690U 01004A   20327.80254499  .00000027  00000-0  00000-0 0  9992
2 26690  53.5362 108.0944 0000484 246.1379 141.1278  1.91595567144587
1 26690U 01004A   20327.80254499  .00000027  00000-0  00000-0 0  9992
2 26690  53.5362 108.0944 0000484 246.1379 141.1278  1.91595567144600
1 26690U 01004A   20329.05053080  .00000024  00000-0  00000-0 0  9991
2 26690  53.5370 108.0475 0000493 248.7700 279.3173  1.91595616144629
1 26690U 01004A   20329.32911064  .00000023  00000-0  00000-0 0  9995
2 26690  53.5372 108.0371 0000495 248.9140 111.3291  1.91595620144607
1 26690U 01004A   20330.38452153  .00000017  00000-0  00000-0 0  9995
2 26690  53.5378 107.9975 0000502 251.0110 117.2216  1.91595618144634
1 26690U 01004A   20330.63489029  .00000015  00000-0  00000-0 0  9993
2 26690  53.5380 107.9881 0000502 251.7023 289.2268  1.91595619144653
1 26690U 01004A   20331.41709184  .00000010  00000-0  00000-0 0  9992
2 26690  53.5384 107.9588 0000511 253.1201 107.3474  1.91595597144648
1 26690U 01004A   20332.25015315  .00000006  00000-0  00000-0 0  9996
2 26690  53.5390 107.9276 0000513 254.6007 320.4866  1.91595580144680
1 26690U 01004A   20332.82824510  .00000003  00000-0  00000-0 0  9991
2 26690  53.5393 107.9060 0000520 255.7222 358.1148  1.91595562144695
1 26690U 01004A   20333.52148484  .00000001  00000-0  00000-0 0  9996
2 26690  53.5397 107.8800 0000534 257.0536 114.9587  1.91595541144690
1 26690U 01004A   20334.57007064  .00000001  00000-0  00000-0 0  9990
2 26690  53.5403 107.8407 0000554 258.8177 116.4764  1.91595528144715
1 26690U 01004A   20334.57007064  .00000001  00000-0  00000-0 0  9990
2 26690  53.5403 107.8407 0000554 258.8177 116.4764  1.91595528144737
1 26690U 01004A   20335.61464284  .00000004  00000-0  00000-0 0  9990
2 26690  53.5409 107.8016 0000574 260.4437 115.3635  1.91595524144730
1 26690U 01004A   20335.61464284  .00000004  00000-0  00000-0 0  9990
2 26690  53.5409 107.8016 0000574 260.4437 115.3635  1.91595524144752
1 26690U 01004A   20335.85822556  .00000005  00000-0  00000-0 0  9997
2 26690  53.5410 107.7925 0000576 260.7378 283.0852  1.91595529144738
1 26690U 01004A   20336.67104700  .00000010  00000-0  00000-0 0  9998
2 26690  53.5415 107.7620 0000592 261.9755 122.5061  1.91595524144773
1 26690U 01004A   20337.70244852  .00000017  00000-0  00000-0 0  9993
2 26690  53.5420 107.7233 0000614 263.3622 112.5479  1.91595516144798
1 26690U 01004A   20338.75920046  .00000025  00000-0  00000-0 0  9994
2 26690  53.5427 107.6836 0000635 264.4264 120.3980  1.91595493144798
1 26690U 01004A   20338.75920046  .00000025  00000-0  00000-0 0  9994
2 26690  53.5427 107.6836 0000635 264.4264 120.3980  1.91595493144811
1 26690U 01004A   20340.00264162  .00000033  00000-0  00000-0 0  9994
2 26690  53.5434 107.6369 0000667 265.1748 257.3359  1.91595443144838
1 26690U 01004A   20340.54453946  .00000035  00000-0  00000-0 0  9995
2 26690  53.5438 107.6165 0000681 265.0737 271.2210  1.91595412144847
1 26690U 01004A   20341.05562670  .00000037  00000-0  00000-0 0  9999
2 26690  53.5441 107.5972 0000695 264.9329 263.8935  1.91595378144837
1 26690U 01004A   20341.05562670  .00000037  00000-0  00000-0 0  9999
2 26690  53.5441 107.5972 0000695 264.9329 263.8935  1.91595378144859
1 26690U 01004A   20342.11395346  .00000037  00000-0  00000-0 0  9991
2 26690  53.5447 107.5574 0000730 264.1905 274.6360  1.91595308144872
1 26690U 01004A   20342.37874596  .00000036  00000-0  00000-0 0  9997
2 26690  53.5448 107.5474 0000747 263.9237  97.5483  1.91595277144867
1 26690U 01004A   20342.37874596  .00000036  00000-0  00000-0 0  9997
2 26690  53.5448 107.5474 0000747 263.9237  97.5483  1.91595277144889
1 26690U 01004A   20343.43296088  .00000030  00000-0  00000-0 0  9993
2 26690  53.5455 107.5076 0000793 262.9659 105.6697  1.91595209144886
1 26690U 01004A   20343.43296088  .00000030  00000-0  00000-0 0  9993
2 26690  53.5455 107.5076 0000793 262.9659 105.6697  1.91595209144909
1 26690U 01004A   20344.44249865  .00000021  00000-0  00000-0 0  9996
2 26690  53.5462 107.4695 0000843 261.9617  83.0207  1.91595169144914
1 26690U 01004A   20345.51039212  .00000007  00000-0  00000-0 0  9992
2 26690  53.5470 107.4291 0000899 261.0219 100.5591  1.91595160144940
1 26690U 01004A   20346.57465184 -.00000007  00000-0  00000+0 0  9990
2 26690  53.5477 107.3888 0000953 260.0155 115.6575  1.91595179144946
1 26690U 01004A   20346.57465184 -.00000007  00000-0  00000-0 0  9991
2 26690  53.5477 107.3888 0000953 260.0155 115.6575  1.91595179144968
1 26690U 01004A   20347.07362955 -.00000013  00000-0  00000-0 0  9996
2 26690  53.5480 107.3700 0000975 259.5935 100.2583  1.91595197144967
1 26690U 01004A   20347.61966187 -.00000019  00000-0  00000-0 0  9999
2 26690  53.5484 107.3493 0000997 259.0393 117.4479  1.91595220144980
1 26690U 01004A   20348.66168722 -.00000027  00000-0  00000+0 0  9992
2 26690  53.5491 107.3100 0001043 258.2468 116.9960  1.91595271144985
1 26690U 01004A   20348.66168722 -.00000027  00000-0  00000-0 0  9993
2 26690  53.5491 107.3100 0001043 258.2468 116.9960  1.91595271145009
1 26690U 01004A   20349.79154931 -.00000030  00000-0  00000-0 0  9999
2 26690  53.5499 107.2673 0001090 257.6406 176.9449  1.91595330145024
1 26690U 01004A   20351.26682156 -.00000026  00000-0  00000-0 0  9994
2 26690  53.5509 107.2115 0001148 257.6654 114.5159  1.91595384145054
1 26690U 01004A   20352.31725337 -.00000021  00000-0  00000-0 0  9995
2 26690  53.5517 107.1720 0001187 258.1210 118.6150  1.91595417145076
1 26690U 01004A   20353.06794579 -.00000016  00000-0  00000-0 0  9996
2 26690  53.5522 107.1437 0001213 258.6643 275.8756  1.91595445145082
1 26690U 01004A   20354.47420890 -.00000012  00000-0  00000-0 0  9990
2 26690  53.5532 107.0908 0001246 259.6006 164.9353  1.91595470145118
1 26690U 01004A   20355.47376961 -.00000012  00000-0  00000-0 0  9990
2 26690  53.5537 107.0533 0001267 260.3978 133.6038  1.91595499145133
